1 27424U 02022A   11294.78184478  .00001118  00000-0  25812-3 0   992
2 27424 098.2071 233.5901 0001360 084.5770 275.5572 14.57128411503502